{
    "links": {
        "self": "http://www.neowsapp.com/rest/v1/neo/3781460?api_key=iIulBulltgU6a56xZRHN4H3l9WmuAYTsLGpBGhQ2"
    },
    "id": "3781460",
    "neo_reference_id": "3781460",
    "name": "(2017 RO15)",
    "designation": "2017 RO15",
    "nasa_jpl_url": "http://ssd.jpl.nasa.gov/sbdb.cgi?sstr=3781460",
    "absolute_magnitude_h": 25.4,
    "estimated_diameter": {
        "kilometers": {
            "estimated_diameter_min": 0.022108281,
            "estimated_diameter_max": 0.0494356193
        },
        "meters": {
            "estimated_diameter_min": 22.1082810359,
            "estimated_diameter_max": 49.435619262
        },
        "miles": {
            "estimated_diameter_min": 0.0137374447,
            "estimated_diameter_max": 0.0307178602
        },
        "feet": {
            "estimated_diameter_min": 72.5337327539,
            "estimated_diameter_max": 162.1903570994
        }
    },
    "is_potentially_hazardous_asteroid": false,
    "close_approach_data": [
        {
            "close_approach_date": "2017-09-09",
            "close_approach_date_full": "2017-Sep-09 15:57",
            "epoch_date_close_approach": 1504972620000,
            "relative_velocity": {
                "kilometers_per_second": "11.1027759918",
                "kilometers_per_hour": "39969.9935703493",
                "miles_per_hour": "24835.7996159762"
            },
            "miss_distance": {
                "astronomical": "0.1304725958",
                "lunar": "50.7538397662",
                "kilometers": "19518422.425050946",
                "miles": "12128185.3035012148"
            },
            "orbiting_body": "Earth"
        },
        {
            "close_approach_date": "2157-09-13",
            "close_approach_date_full": "2157-Sep-13 08:04",
            "epoch_date_close_approach": 5923267440000,
            "relative_velocity": {
                "kilometers_per_second": "11.2514135862",
                "kilometers_per_hour": "40505.088910189",
                "miles_per_hour": "25168.2870508894"
            },
            "miss_distance": {
                "astronomical": "0.3050229189",
                "lunar": "118.6539154521",
                "kilometers": "45630778.968622743",
                "miles": "28353651.2748221334"
            },
            "orbiting_body": "Earth"
        }
    ],
    "orbital_data": {
        "orbit_id": "1",
        "orbit_determination_date": "2017-09-18 08:42:05",
        "first_observation_date": "2017-09-14",
        "last_observation_date": "2017-09-18",
        "data_arc_in_days": 4,
        "observations_used": 13,
        "orbit_uncertainty": "8",
        "minimum_orbit_intersection": ".130122",
        "jupiter_tisserand_invariant": "4.627",
        "epoch_osculation": "2458011.5",
        "eccentricity": ".2115956276436891",
        "semi_major_axis": "1.416373548234414",
        "inclination": "20.75836295637532",
        "ascending_node_longitude": "171.5248461940668",
        "orbital_period": "615.6943070920081",
        "perihelion_distance": "1.116675098317834",
        "perihelion_argument": "151.5807294983966",
        "aphelion_distance": "1.716071998150993",
        "perihelion_time": "2457979.676469007340",
        "mean_anomaly": "18.60740147406555",
        "mean_motion": ".5847057474029922",
        "equinox": "J2000",
        "orbit_class": {
            "orbit_class_type": "AMO",
            "orbit_class_description": "Near-Earth asteroid orbits similar to that of 1221 Amor",
            "orbit_class_range": "1.017 AU < q (perihelion) < 1.3 AU"
        }
    },
    "is_sentry_object": false
}